APRIZESAT 2             
1 28366U 04025A   23055.57762325  .00000291  00000+0  10589-3 0  9995
2 28366  98.1321 276.3635 0106263 296.8572  62.1783 14.36930338978023
SAUDICOMSAT 1           
1 28369U 04025D   23055.49250374  .00000735  00000+0  18801-3 0  9993
2 28369  98.4779  24.2329 0034425 122.0682 238.3864 14.53060667988440
SAUDICOMSAT 2           
1 28370U 04025E   23055.45076497  .00000793  00000+0  22237-3 0  9995
2 28370  98.5699  23.8425 0056646 319.6628  40.0369 14.47939586985093
APRIZESAT 1             
1 28372U 04025G   23055.49435781  .00000508  00000+0  14172-3 0  9999
2 28372  98.5309  23.8364 0045197 227.9635 131.7708 14.50006583986624
NANOSAT-1               
1 28493U 04049B   23055.52645722  .00001685  00000+0  26092-3 0  9992
2 28493  98.1157 161.6528 0004094 193.8371 166.2725 14.74535166977001
SAUDICOMSAT 7           
1 31119U 07012C   23055.44737316  .00001461  00000+0  29088-3 0  9996
2 31119  98.2166   4.3927 0060049  23.6390 336.7550 14.62464136845537
SAUDICOMSAT 6           
1 31121U 07012E   23055.40452992  .00000927  00000+0  19879-3 0  9992
2 31121  98.2547 359.5722 0076889 128.3580 232.4561 14.59207351843682
SAUDICOMSAT 5           
1 31124U 07012H   23055.42027221  .00001530  00000+0  29462-3 0  9990
2 31124  98.1862   5.7205 0050241 327.7083  32.1046 14.64233362846455
SAUDICOMSAT 3           
1 31125U 07012J   23055.50336996  .00001456  00000+0  27089-3 0  9992
2 31125  98.1524   7.0029 0041078 269.6664  89.9832 14.66122982847436
SAUDICOMSAT 4           
1 31127U 07012L   23055.43529400  .00001232  00000+0  25310-3 0  9997
2 31127  98.2385   2.8308 0068731  73.1925 287.6800 14.60954098844669
APRIZESAT 4             
1 35684U 09041D   23055.65003330  .00001089  00000+0  14907-3 0  9996
2 35684  98.2972  82.8002 0045120 262.2640  97.3446 14.80054090732410
APRIZESAT 3             
1 35686U 09041F   23055.23417643  .00002255  00000+0  23662-3 0  9992
2 35686  98.0960 152.4742 0072277  83.3505 277.5931 14.88660616736057
AISSAT 1                
1 36797U 10035C   23055.51291972  .00002666  00000+0  29632-3 0  9996
2 36797  98.2335 253.9040 0011828  71.4643 288.7857 14.88044646683919
S-NET D                 
1 43186U 18014G   23055.51283141  .00003546  00000+0  29459-3 0  9995
2 43186  97.6440 321.3828 0009652 165.5132 194.6370 14.99344706276660
S-NET B                 
1 43187U 18014H   23055.31319991  .00004061  00000+0  33665-3 0  9994
2 43187  97.6436 321.1252 0009680 166.1826 193.9664 14.99339184276632
S-NET A                 
1 43188U 18014J   23055.31347473  .00004070  00000+0  33742-3 0  9997
2 43188  97.6441 321.2045 0009688 166.6118 193.5364 14.99339968276630
S-NET C                 
1 43189U 18014K   23055.31485669  .00004199  00000+0  34805-3 0  9991
2 43189  97.6431 321.1112 0009782 167.4264 192.7205 14.99331744275188
SALSAT                  
1 46495U 20068K   23055.31816126  .00006098  00000+0  41818-3 0  9994
2 46495  97.7594   2.3254 0017235 137.9077 222.3477 15.06277696132078
